[{"OBJECT_NAME":"STARLINK-5920","OBJECT_ID":"2023-037X","EPOCH":"2026-03-09T22:11:22.157664","MEAN_MOTION":14.98330041,"ECCENTRICITY":0.00027806,"INCLINATION":69.9981,"RA_OF_ASC_NODE":283.935,"ARG_OF_PERICENTER":270.2214,"MEAN_ANOMALY":89.8627,"EPHEMERIS_TYPE":0,"CLASSIFICATION_TYPE":"U","NORAD_CAT_ID":55935,"ELEMENT_SET_NO":999,"REV_AT_EPOCH":16401,"BSTAR":-3.4794604e-5,"MEAN_MOTION_DOT":-5.08e-6,"MEAN_MOTION_DDOT":0},{"OBJECT_NAME":"IRIDIUM 33 DEB","OBJECT_ID":"1997-051CX","EPOCH":"2026-03-09T17:43:24.588192","MEAN_MOTION":14.98094004,"ECCENTRICITY":0.00015404,"INCLINATION":86.3865,"RA_OF_ASC_NODE":350.5598,"ARG_OF_PERICENTER":95.4765,"MEAN_ANOMALY":329.7207,"EPHEMERIS_TYPE":0,"CLASSIFICATION_TYPE":"U","NORAD_CAT_ID":34088,"ELEMENT_SET_NO":999,"REV_AT_EPOCH":90041,"BSTAR":0.0032183732,"MEAN_MOTION_DOT":0.00038264,"MEAN_MOTION_DDOT":0}]
